[{"OBJECT_NAME":"YAOGAN-39 02B","OBJECT_ID":"2023-145D","EPOCH":"2026-03-09T14:23:58.847424","MEAN_MOTION":15.16715423,"ECCENTRICITY":0.0004349,"INCLINATION":34.9899,"RA_OF_ASC_NODE":125.1097,"ARG_OF_PERICENTER":240.3858,"MEAN_ANOMALY":119.6421,"EPHEMERIS_TYPE":0,"CLASSIFICATION_TYPE":"U","NORAD_CAT_ID":57889,"ELEMENT_SET_NO":999,"REV_AT_EPOCH":13775,"BSTAR":0.00040419,"MEAN_MOTION_DOT":8.082e-5,"MEAN_MOTION_DDOT":0},{"OBJECT_NAME":"STARLINK-30569","OBJECT_ID":"2023-158T","EPOCH":"2026-03-09T22:00:01.999584","MEAN_MOTION":15.15005129,"ECCENTRICITY":0.00022494,"INCLINATION":42.9997,"RA_OF_ASC_NODE":28.3107,"ARG_OF_PERICENTER":271.6745,"MEAN_ANOMALY":126.7361,"EPHEMERIS_TYPE":0,"CLASSIFICATION_TYPE":"U","NORAD_CAT_ID":58068,"ELEMENT_SET_NO":999,"REV_AT_EPOCH":558,"BSTAR":0.0041706163,"MEAN_MOTION_DOT":0.00079957,"MEAN_MOTION_DDOT":0}]
